     2.11           N: GPS NAV DATA                         RINEX VERSION / TYPE
teqc  2019Feb25     CORS-ADM Account    20260511 13:45:01UTCPGM / RUN BY / DATE
Linux 2.4.21-27.ELsmp|Opteron|gcc|Linux 64|=+               COMMENT
     2.10           N: GPS NAV DATA                         COMMENT
rvacn.e(1404.07)                        2026-05-11T13:27 UTCCOMMENT
This file contains the validated broadcast navigation       COMMENT
messages from the following files:                          COMMENT
aaaa1310.26n, abmf131m.26n, abpo131m.26n, albh131m.26n,     COMMENT
alic131m.26n, areq131m.26n, aruc131m.26n, baie131m.26n,     COMMENT
bake131m.26n, brew131m.26n, brst131m.26n, brux131m.26n,     COMMENT
bshm131m.26n, bucu131m.26n, cebr131m.26n, chpi131m.26n,     COMMENT
chum131m.26n, chur131m.26n, ckis131m.26n, coco131m.26n,     COMMENT
cro1131m.26n, darw131m.26n, dav1131m.26n, dgar131m.26n,     COMMENT
djig131m.26n, dlf1131m.26n, drao131m.26n, dubo131m.26n,     COMMENT
ebre131m.26n, faa1131m.26n, fair131m.26n, falk131m.26n,     COMMENT
flin131m.26n, glps131m.26n, gode131m.26n, guam131m.26n,     COMMENT
harb131m.26n, hlfx131m.26n, hob2131m.26n, hofn131m.26n,     COMMENT
holb131m.26n, hrao131m.26n, iisc131m.26n, iqal131m.26n,     COMMENT
ista131m.26n, jplm131m.26n, karr131m.26n, kat1131m.26n,     COMMENT
kiri131m.26n, kiru131m.26n, kokb131m.26n, koug131m.26n,     COMMENT
kour131m.26n, lmmf131m.26n, mac1131m.26n, maju131m.26n,     COMMENT
mal2131m.26n, mar6131m.26n, mas1131m.26n, mat1131m.26n,     COMMENT
mate131m.26n, maw1131m.26n, mcm4131m.26n, mdo1131m.26n,     COMMENT
medi131m.26n, met3131m.26n, mkea131m.26n, mobs131m.26n,     COMMENT
mro1131m.26n, nain131m.26n, nano131m.26n, naur131m.26n,     COMMENT
nico131m.26n, nklg131m.26n, nlib131m.26n, nnor131m.26n,     COMMENT
not1131m.26n, nrc1131m.26n, palm131m.26n, pert131m.26n,     COMMENT
picl131m.26n, pie1131m.26n, pimo131m.26n, pohn131m.26n,     COMMENT
prds131m.26n, ptvl131m.26n, qaq1131m.26n, qiki131m.26n,     COMMENT
reso131m.26n, reun131m.26n, reyk131m.26n, riga131m.26n,     COMMENT
sant131m.26n, sask131m.26n, sch2131m.26n, scor131m.26n,     COMMENT
seyg131m.26n, solo131m.26n, stj3131m.26n, stjo131m.26n,     COMMENT
suth131m.26n, suwn131m.26n, sydn131m.26n, thtg131m.26n,     COMMENT
thu2131m.26n, tid1131m.26n, tow2131m.26n, tuva131m.26n,     COMMENT
vacs131m.26n, vald131m.26n, vill131m.26n, warn131m.26n,     COMMENT
whit131m.26n, will131m.26n, wsrt131m.26n, xmis131m.26n,     COMMENT
yar2131m.26n, yell131m.26n, zim2131m.26n, zimm131m.26n      COMMENT
    1.6760D-08  2.2350D-08 -1.1920D-07 -1.1920D-07          ION ALPHA
    1.1060D+05  9.8300D+04 -1.3110D+05 -1.9660D+05          ION BETA
    1.862645149230D-09 3.552713678800D-15   147456     2418 DELTA-UTC: A0,A1,T,W
                                                            END OF HEADER
18 26  5 11 14  0  0.0-3.551677800715D-04 9.322320693173D-12 0.000000000000D+00
    7.600000000000D+01-2.512500000000D+01 4.328394580722D-09 7.230524642774D-01
   -1.197680830956D-06 5.956742679700D-03 8.525326848030D-06 5.153629716873D+03
    1.368000000000D+05 1.862645149231D-08 1.830365914864D+00 3.911554813385D-08
    9.710810023816D-01 2.172812500000D+02-2.873845785018D+00-8.062478691742D-09
   -3.853731951976D-10 1.000000000000D+00 2.418000000000D+03 0.000000000000D+00
    2.000000000000D+00 0.000000000000D+00-8.381903171539D-09 3.320000000000D+02
    1.296180000000D+05 4.000000000000D+00
19 26  5 11 14  0  0.0 6.995014846325D-04 9.094947017729D-13 0.000000000000D+00
    4.400000000000D+01-7.187500000000D-01 5.029495212949D-09-1.853250258992D+00
   -8.381903171539D-08 1.147216162644D-02 5.559995770454D-06 5.153733963013D+03
    1.368000000000D+05-5.960464477539D-08 8.624625929146D-01-2.309679985046D-07
    9.575041804867D-01 2.725937500000D+02 2.971013845441D+00-8.416779164065D-09
   -1.075044779930D-10 1.000000000000D+00 2.418000000000D+03 0.000000000000D+00
    2.000000000000D+00 0.000000000000D+00-1.536682248116D-08 4.400000000000D+01
    1.296180000000D+05 4.000000000000D+00
20 26  5 11 14  0  0.0 1.495964825153D-04 1.693933882052D-11 0.000000000000D+00
    1.070000000000D+02-2.859375000000D+01 4.716625037793D-09-9.091103852166D-01
   -1.410022377968D-06 2.088297856972D-03 4.719942808151D-06 5.153598482132D+03
    1.368000000000D+05 4.284083843231D-08-2.400308224575D+00 8.568167686462D-08
    9.609563540893D-01 2.900000000000D+02-1.858677608994D+00-8.407493062976D-09
    4.678766317969D-11 1.000000000000D+00 2.418000000000D+03 0.000000000000D+00
    2.000000000000D+00 0.000000000000D+00-8.847564458847D-09 1.070000000000D+02
    1.296310000000D+05 4.000000000000D+00
21 26  5 11 14  0  0.0 4.146159626544D-04-7.958078640513D-13 0.000000000000D+00
    3.700000000000D+01 3.718750000000D+01 4.371610666560D-09-1.232821859316D+00
    1.989305019379D-06 7.766337366775D-04 7.901340723038D-06 5.153549287796D+03
    1.368000000000D+05-2.048909664154D-08 2.877632034982D+00-3.911554813385D-08
    9.638463824020D-01 2.301875000000D+02-1.608711353971D-01-8.098194465162D-09
    2.296524230881D-10 1.000000000000D+00 2.418000000000D+03 0.000000000000D+00
    2.000000000000D+00 0.000000000000D+00-9.778887033463D-09 5.490000000000D+02
    1.296180000000D+05 4.000000000000D+00
22 26  5 11 14  0  0.0-4.025176167488D-06 6.593836587854D-12 0.000000000000D+00
    1.000000000000D+02 6.290625000000D+01 4.672337478753D-09-2.940166611455D+00
    3.285706043243D-06 1.194069476333D-02 8.385628461838D-06 5.153724411011D+03
    1.368000000000D+05 5.401670932770D-08-1.940853313359D-01 1.862645149231D-07
    9.578152656275D-01 2.110312500000D+02-9.954735345885D-01-7.926401595014D-09
    4.025167664390D-10 1.000000000000D+00 2.418000000000D+03 0.000000000000D+00
    2.000000000000D+00 0.000000000000D+00-1.117587089539D-08 1.000000000000D+02
    1.296180000000D+05 4.000000000000D+00
23 26  5 11 14  0  0.0 6.462545134127D-04 4.320099833421D-12 0.000000000000D+00
    4.400000000000D+01 2.887500000000D+01 3.857303529318D-09-4.566719114524D-01
    1.342967152596D-06 6.174016045406D-03 8.104369044304D-06 5.153715013504D+03
    1.368000000000D+05 8.009374141693D-08 2.838561990095D+00 6.519258022308D-08
    9.889100077969D-01 2.398437500000D+02-2.743576562485D+00-7.873185092618D-09
    9.857553463812D-11 1.000000000000D+00 2.418000000000D+03 0.000000000000D+00
    2.000000000000D+00 0.000000000000D+00-8.847564458847D-09 5.560000000000D+02
    1.311420000000D+05 4.000000000000D+00
24 26  5 11 14  0  0.0 5.761627107859D-06 1.841726771090D-11 0.000000000000D+00
    3.900000000000D+01-6.368750000000D+01 5.098069497915D-09 9.131063766714D-01
   -3.360211849213D-06 1.806824083906D-02 9.648501873016D-06 5.153644945145D+03
    1.368000000000D+05-2.570450305939D-07-1.442287612063D+00-2.048909664154D-08
    9.347192240876D-01 1.839062500000D+02 1.145966372179D+00-8.624287807633D-09
   -2.664396697103D-10 1.000000000000D+00 2.418000000000D+03 0.000000000000D+00
    2.000000000000D+00 0.000000000000D+00 2.328306436539D-09 3.900000000000D+01
    1.296210000000D+05 4.000000000000D+00
25 26  5 11 14  0  0.0 4.234928637743D-04-2.842170943040D-12 0.000000000000D+00
    3.300000000000D+01 5.246875000000D+01 4.970207029073D-09-8.920975022989D-01
    3.023073077202D-06 1.285107852891D-02 9.218230843544D-06 5.153698078156D+03
    1.368000000000D+05-4.097819328308D-08-3.088670102822D-01 2.328306436539D-07
    9.475886226868D-01 2.004375000000D+02 1.161006874334D+00-8.358562453391D-09
    3.142988060926D-10 1.000000000000D+00 2.418000000000D+03 0.000000000000D+00
    2.000000000000D+00 0.000000000000D+00 5.587935447693D-09 3.300000000000D+01
    1.296180000000D+05 4.000000000000D+00
26 26  5 11 14  0  0.0-3.638537600636D-04-4.092726157978D-12 0.000000000000D+00
    4.200000000000D+01 5.387500000000D+01 5.251290165885D-09-1.724512479084D+00
    2.574175596237D-06 1.104340248276D-02 8.769333362579D-06 5.153756292343D+03
    1.368000000000D+05 1.266598701477D-07-3.846674478575D-01-1.117587089539D-07
    9.283059360569D-01 1.871875000000D+02 7.141301327636D-01-8.286059433349D-09
    3.871589838686D-10 1.000000000000D+00 2.418000000000D+03 0.000000000000D+00
    2.000000000000D+00 0.000000000000D+00 6.519258022308D-09 4.200000000000D+01
    1.296180000000D+05 4.000000000000D+00
27 26  5 11 14  0  0.0-1.466539688408D-04-1.716671249596D-11 0.000000000000D+00
    8.600000000000D+01 1.246875000000D+01 5.010565853037D-09 2.840060852071D+00
    4.433095455170D-07 1.435012987349D-02 4.759058356285D-06 5.153670207977D+03
    1.368000000000D+05-7.264316082001D-08 7.454833608543D-01-2.346932888031D-07
    9.518740729644D-01 2.822500000000D+02 8.976814942546D-01-8.179269270825D-09
   -1.417916204758D-10 1.000000000000D+00 2.418000000000D+03 0.000000000000D+00
    4.000000000000D+00 6.300000000000D+01 2.328306436539D-09 8.600000000000D+01
    1.296180000000D+05 4.000000000000D+00
28 26  5 11 14  0  0.0-5.324841476977D-04 1.045918907039D-11 0.000000000000D+00
    1.330000000000D+02-4.753125000000D+01 4.288392914492D-09 7.019235530877D-01
   -2.348795533180D-06 4.499361384660D-04 9.531155228615D-06 5.153587007523D+03
    1.368000000000D+05 1.862645149231D-08-1.357460964086D+00-9.313225746155D-09
    9.616032286685D-01 1.953125000000D+02-4.329298847874D-01-7.958902948826D-09
   -5.321650239522D-11 1.000000000000D+00 2.418000000000D+03 0.000000000000D+00
    2.000000000000D+00 0.000000000000D+00-9.778887033463D-09 3.890000000000D+02
    1.296180000000D+05 4.000000000000D+00
